     3.04           N: GNSS NAV DATA    M: MIXED            RINEX VERSION / TYPE
ssrcrin-15.6.1x                         20250101 133000 UTC PGM / RUN BY / DATE 
    18                                                      LEAP SECONDS        
                                                            END OF HEADER       
S44 2025 01 01 13 38 08 8.409842848778E-07 0.000000000000E+00 3.083120000000E+05
     7.271065760000E+03 4.563125000000E-03 1.125000000000E-07 6.300000000000E+01
     4.153980584000E+04 1.470000000000E-03-2.625000000000E-07 3.276700000000E+04
    -3.438868000000E+02 1.381360000000E-01 8.750000000000E-07 6.000000000000E+01
S23 2025 01 01 13 38 56 0.000000000000E+00 0.000000000000E+00 3.083380000000E+05
     3.866796400000E+04 0.000000000000E+00 0.000000000000E+00 6.300000000000E+01
     1.681330800000E+04 0.000000000000E+00 0.000000000000E+00 3.276700000000E+04
     0.000000000000E+00 0.000000000000E+00 0.000000000000E+00 1.210000000000E+02
S36 2025 01 01 13 38 56 0.000000000000E+00 0.000000000000E+00 3.083390000000E+05
     4.200368800000E+04 0.000000000000E+00 0.000000000000E+00 6.300000000000E+01
     3.674846960000E+03 0.000000000000E+00 0.000000000000E+00 3.276700000000E+04
     0.000000000000E+00 0.000000000000E+00 0.000000000000E+00 2.170000000000E+02
S27 2025 01 01 13 40 16 3.688037395477E-07 7.275957614183E-11 3.083920000000E+05
     2.407655768000E+04 1.386875000000E-03 3.750000000000E-07 3.100000000000E+01
     3.461028000000E+04 2.553750000000E-03-2.125000000000E-07 4.096000000000E+03
    -5.606432000000E+02 3.248000000000E-03 3.000000000000E-06 1.900000000000E+02
S28 2025 01 01 13 40 16 1.303851604462E-07 2.000888343900E-11 3.083920000000E+05
     5.077829280000E+03 1.888125000000E-03 1.750000000000E-07 6.300000000000E+01
     4.187063920000E+04 1.046875000000E-03-7.500000000000E-08 3.276700000000E+04
     2.315560000000E+01 2.080000000000E-04-1.250000000000E-07 1.900000000000E+02
S44 2025 01 01 13 40 16 8.409842848778E-07 0.000000000000E+00 3.084320000000E+05
     7.271651760000E+03 4.592500000000E-03 1.125000000000E-07 6.300000000000E+01
     4.153998960000E+04 1.400625000000E-03-2.625000000000E-07 3.276700000000E+04
    -3.261908000000E+02 1.383640000000E-01 8.750000000000E-07 6.000000000000E+01
E30 2025 01 01 13 30 00-1.090192236006E-03-3.998934516858E-11 0.000000000000E+00
     5.000000000000E+00-1.675000000000E+01 3.480859277475E-09 4.982398319060E-01
    -7.785856723785E-07 5.765004316345E-04 6.619840860367E-06 5.440611511230E+03
     3.078000000000E+05-3.725290298462E-09 2.416191104218E+00 4.842877388000E-08
     9.620377504481E-01 1.988437500000E+02 9.719456323169E-01-5.512729627317E-09
    -6.314548740587E-10 5.170000000000E+02 2.347000000000E+03
     3.120000000000E+00 0.000000000000E+00-9.313225746155E-10-2.328306436539E-10
     3.084650000000E+05
E27 2025 01 01 13 30 00-5.448965821415E-04-9.919176591211E-12 0.000000000000E+00
     5.000000000000E+00-1.628125000000E+01 3.517289366363E-09 1.391869868167E-01
    -6.556510925293E-07 3.206008113921E-04 6.226822733879E-06 5.440602012634E+03
     3.078000000000E+05 5.960464477539E-08 2.413572858289E+00-7.450580596924E-09
     9.642080581759E-01 2.054062500000E+02 5.525949656841E-01-5.547731085268E-09
    -6.425267638188E-10 5.170000000000E+02 2.347000000000E+03
     3.120000000000E+00 0.000000000000E+00-4.656612873077E-10 4.656612873077E-10
     3.084650000000E+05
E02 2025 01 01 13 30 00 1.867467071861E-04 2.870592652471E-12 0.000000000000E+00
     5.000000000000E+00-2.396875000000E+01 3.372997641748E-09 1.575600915497E+00
    -1.285225152969E-06 5.101987626404E-04 6.685033440590E-06 5.440613206863E+03
     3.078000000000E+05-1.303851604462E-08 2.416760373919E+00 4.097819328308E-08
     9.646377552516E-01 1.989062500000E+02 6.896507529621E-01-5.464156175466E-09
    -6.968147394166E-10 5.170000000000E+02 2.347000000000E+03
     3.120000000000E+00 0.000000000000E+00-3.958120942116E-09-3.958120942116E-09
     3.084650000000E+05
E29 2025 01 01 13 30 00-5.847442662343E-05-3.140598892060E-12 0.000000000000E+00
     5.000000000000E+00-1.871250000000E+02 2.796545058755E-09-6.612101772122E-01
    -8.542090654373E-06 3.151086857542E-04 1.176446676254E-05 5.440619735718E+03
     3.078000000000E+05 0.000000000000E+00 3.157054501021E-01 2.793967723846E-08
     9.569339906103E-01 8.540625000000E+01 2.648810275614E+00-5.281291415557E-09
     3.428714248282E-10 5.170000000000E+02 2.347000000000E+03
     3.120000000000E+00 0.000000000000E+00-5.355104804039E-09-4.190951585770E-09
     3.084650000000E+05
E34 2025 01 01 13 30 00-1.551022869535E-04-2.202682480856E-12 0.000000000000E+00
     5.000000000000E+00 1.652812500000E+02 2.541891594274E-09 2.327621992879E+00
     7.785856723785E-06 1.912350999191E-04 2.644956111908E-07 5.440605287552E+03
     3.078000000000E+05 5.960464477539E-08-1.777753055076E+00 7.823109626770E-08
     9.995109076070E-01 3.530937500000E+02-2.151464086235E+00-5.605233480473E-09
     3.453715289676E-10 5.170000000000E+02 2.347000000000E+03
     3.120000000000E+00 0.000000000000E+00 6.984919309616E-10 2.561137080193E-09
     3.084650000000E+05
E11 2025 01 01 13 30 00-7.094698958099E-05-2.198987658630E-10-3.469446951954E-18
     5.000000000000E+00 1.596562500000E+02 2.570821370743E-09 1.601490301094E+00
     7.448717951775E-06 2.607518108562E-04 7.953494787216E-07 5.440612304688E+03
     3.078000000000E+05 1.862645149231E-09-1.775215663166E+00 5.587935447693E-09
     9.965829034038E-01 3.399062500000E+02 1.125122277973E-01-5.659164298337E-09
     2.907263956356E-10 5.170000000000E+02 2.347000000000E+03
     3.120000000000E+00 0.000000000000E+00-1.676380634308E-08-1.722946763039E-08
     3.084650000000E+05
S23 2025 01 01 13 41 04 0.000000000000E+00 0.000000000000E+00 3.084640000000E+05
     3.866796400000E+04 0.000000000000E+00 0.000000000000E+00 6.300000000000E+01
     1.681330800000E+04 0.000000000000E+00 0.000000000000E+00 3.276700000000E+04
     0.000000000000E+00 0.000000000000E+00 0.000000000000E+00 1.220000000000E+02
S21 2025 01 01 13 41 04 0.000000000000E+00 0.000000000000E+00 3.084750000000E+05
     4.200468400000E+04 0.000000000000E+00 0.000000000000E+00 6.300000000000E+01
    -3.674932960000E+03 0.000000000000E+00 0.000000000000E+00 3.276700000000E+04
     0.000000000000E+00 0.000000000000E+00 0.000000000000E+00 1.490000000000E+02
S36 2025 01 01 13 41 20 0.000000000000E+00 0.000000000000E+00 3.084840000000E+05
     4.200368800000E+04 0.000000000000E+00 0.000000000000E+00 6.300000000000E+01
     3.674846960000E+03 0.000000000000E+00 0.000000000000E+00 3.276700000000E+04
     0.000000000000E+00 0.000000000000E+00 0.000000000000E+00 2.180000000000E+02
E30 2025 01 01 13 30 00-1.090193050914E-03-3.998934516858E-11 0.000000000000E+00
     5.000000000000E+00-1.675000000000E+01 3.480859277475E-09 4.982398319060E-01
    -7.785856723785E-07 5.765004316345E-04 6.619840860367E-06 5.440611511230E+03
     3.078000000000E+05-3.725290298462E-09 2.416191104218E+00 4.842877388000E-08
     9.620377504481E-01 1.988437500000E+02 9.719456323169E-01-5.512729627317E-09
    -6.314548740587E-10 2.580000000000E+02 2.347000000000E+03
     3.120000000000E+00 0.000000000000E+00-9.313225746155E-10 0.000000000000E+00
     3.085400000000E+05
E27 2025 01 01 13 30 00-5.448975716718E-04-9.904965736496E-12 0.000000000000E+00
     5.000000000000E+00-1.628125000000E+01 3.517289366363E-09 1.391869868167E-01
    -6.556510925293E-07 3.206008113921E-04 6.226822733879E-06 5.440602012634E+03
     3.078000000000E+05 5.960464477539E-08 2.413572858289E+00-7.450580596924E-09
     9.642080581759E-01 2.054062500000E+02 5.525949656841E-01-5.547731085268E-09
    -6.425267638188E-10 2.580000000000E+02 2.347000000000E+03
     3.120000000000E+00 0.000000000000E+00-4.656612873077E-10 0.000000000000E+00
     3.085400000000E+05
E02 2025 01 01 13 30 00 1.867465907708E-04 2.870592652471E-12 0.000000000000E+00
     5.000000000000E+00-2.396875000000E+01 3.372997641748E-09 1.575600915497E+00
    -1.285225152969E-06 5.101987626404E-04 6.685033440590E-06 5.440613206863E+03
     3.078000000000E+05-1.303851604462E-08 2.416760373919E+00 4.097819328308E-08
     9.646377552516E-01 1.989062500000E+02 6.896507529621E-01-5.464156175466E-09
    -6.968147394166E-10 2.580000000000E+02 2.347000000000E+03
     3.120000000000E+00 0.000000000000E+00-3.958120942116E-09 0.000000000000E+00
     3.085400000000E+05
E34 2025 01 01 13 30 00-1.551042078063E-04-2.202682480856E-12 0.000000000000E+00
     5.000000000000E+00 1.652812500000E+02 2.541891594274E-09 2.327621992879E+00
     7.785856723785E-06 1.912350999191E-04 2.644956111908E-07 5.440605287552E+03
     3.078000000000E+05 5.960464477539E-08-1.777753055076E+00 7.823109626770E-08
     9.995109076070E-01 3.530937500000E+02-2.151464086235E+00-5.605233480473E-09
     3.453715289676E-10 2.580000000000E+02 2.347000000000E+03
     3.120000000000E+00 0.000000000000E+00 6.984919309616E-10 0.000000000000E+00
     3.085400000000E+05
E29 2025 01 01 13 30 00-5.847582360730E-05-3.140598892060E-12 0.000000000000E+00
     5.000000000000E+00-1.871250000000E+02 2.796545058755E-09-6.612101772122E-01
    -8.542090654373E-06 3.151086857542E-04 1.176446676254E-05 5.440619735718E+03
     3.078000000000E+05 0.000000000000E+00 3.157054501021E-01 2.793967723846E-08
     9.569339906103E-01 8.540625000000E+01 2.648810275614E+00-5.281291415557E-09
     3.428714248282E-10 2.580000000000E+02 2.347000000000E+03
     3.120000000000E+00 0.000000000000E+00-5.355104804039E-09 0.000000000000E+00
     3.085400000000E+05
